CRE (WAAS/PRN 138)      
1 28868U 05036A   22353.65228400 -.00000047  00000+0  00000+0 0  9998
2 28868   1.0287  91.9050 0000621 215.8676 267.9866  1.00271664 33669
IOR-W (EGNOS/PRN 126)   
1 28899U 05044A   22354.18850730  .00000034  00000+0  00000+0 0  9992
2 28899   3.6479  38.9646 0002812 236.7822 304.7595  1.00272956 62717
QZS-1 (QZSS/PRN 183)    
1 37158U 10045A   22353.70605066 -.00000079  00000+0  00000+0 0  9994
2 37158  42.5341 130.8368 0755330 270.4077  78.3098  1.00260899 44945
GSAT-8 (GAGAN/PRN 127)  
1 37605U 11022A   22353.74060431  .00000112  00000+0  00000+0 0  9999
2 37605   0.0407 111.0924 0008418 153.3257 145.6050  1.00270474 40425
LUCH 5A (SDCM/PRN 140)  
1 37951U 11074B   22354.60397016 -.00000025  00000+0  00000+0 0  9992
2 37951   5.4857  94.2006 0002780 150.2314 229.0184  1.00273281 40419
SES-5 (EGNOS/PRN 136)   
1 38652U 12036A   22354.23868848  .00000061  00000+0  00000+0 0  9994
2 38652   0.0579 297.2707 0001944 330.6826 271.7706  1.00271153 38288
GSAT-10 (GAGAN/PRN 128) 
1 38779U 12051B   22353.89355160 -.00000138  00000+0  00000+0 0  9996
2 38779   0.0621 102.4504 0004497 166.4203 224.3232  1.00270511 37507
LUCH 5B (SDCM/PRN 125)  
1 38977U 12061A   22353.94354986 -.00000114  00000+0  00000+0 0  9992
2 38977   7.6929  61.2043 0002918 149.3379 201.3153  1.00271550 37388
ASTRA 5B (EGNOS/PRN 123)
1 39617U 14011B   22354.32535632  .00000182  00000+0  00000+0 0  9997
2 39617   0.0352 344.5440 0003331 268.2639 344.7208  1.00273517 32085
LUCH 5V (SDCM/PRN 141)  
1 39727U 14023A   22353.82940221 -.00000242  00000+0  00000+0 0  9998
2 39727   1.9434  77.0701 0003079 214.1186 190.5325  1.00268483 31578
GSAT-15 (GAGAN/PRN 139) 
1 41028U 15065A   22353.90744019 -.00000230  00000+0  00000+0 0  9995
2 41028   0.0304 276.2564 0002001 312.9412 279.4680  1.00270012 26075
E 117 W B (WAAS/PRN 131)
1 41589U 16038B   22353.72210316  .00000016  00000+0  00000+0 0  9997
2 41589   0.0141 162.6341 0000213  66.1703   2.4395  1.00272347 23887
SES-15 (WAAS/PRN 133)   
1 42709U 17026A   22354.42860336  .00000087  00000+0  00000+0 0  9999
2 42709   0.0177 355.8159 0000126 302.4851 175.8430  1.00267465 21403
QZS-2 (QZSS/PRN 184)    
1 42738U 17028A   22354.51708263 -.00000142  00000+0  00000+0 0  9996
2 42738  41.4637 261.5340 0757695 269.4715 244.7556  1.00285018 20353
QZS-3 (QZSS/PRN 189)    
1 42917U 17048A   22353.90049584 -.00000320  00000+0  00000+0 0  9991
2 42917   0.0698 218.7554 0002330  61.4806 259.4507  1.00272954 19588
QZS-4 (QZSS/PRN 185)    
1 42965U 17062A   22354.34810638 -.00000305  00000+0  00000+0 0  9998
2 42965  40.7217 359.7341 0750690 271.5720  79.2296  1.00254303 19027
GALAXY 30 (WAAS/PRN 135)
1 46114U 20056C   22354.49979766  .00000064  00000+0  00000+0 0  9990
2 46114   0.0174   5.9040 0001831 255.2540 242.8353  1.00269357  8620
